norad_id,name,regime,epoch,line1,line2,inclination,eccentricity,mean_motion,raan,arg_pericenter,mean_anomaly
65486,SHIYAN 29,IGO,25352.90962646,1 65486U 25196A   25352.90962646 -.00000265  00000-0  00000-0 0  5564,2 65486  28.6246  20.8063 0010978 186.5260 302.8248  1.00282416  1070,28.6246,0.0010978,1.00282416,20.8063,186.526,302.8248
65486,SHIYAN 29,IGO,25352.95545802,1 65486U 25196A   25352.95545802 -.00000265  00000-0  00000-0 0  5571,2 65486  28.6247  20.8057 0010977 186.5193 319.3780  1.00282399  1072,28.6247,0.0010977,1.00282399,20.8057,186.5193,319.378
65486,SHIYAN 29,IGO,25353.68396824,1 65486U 25196A   25353.68396824 -.00000264  00000-0  00000+0 0  2991,2 65486  28.6254  20.7964 0011000 186.4644 222.4457  1.00282144  1088,28.6254,0.0011,1.00282144,20.7964,186.4644,222.4457
65486,SHIYAN 29,IGO,25353.68396825,1 65486U 25196A   25353.68396825 -.00000264  00000-0  00000-0 0  5581,2 65486  28.6254  20.7964 0011000 186.4644 222.4457  1.00282144  1088,28.6254,0.0011,1.00282144,20.7964,186.4644,222.4457
65486,SHIYAN 29,IGO,25354.50546006,1 65486U 25196A   25354.50546006 -.00000262  00000-0  00000-0 0  5590,2 65486  28.6262  20.7860 0011024 186.4035 159.0873  1.00281838  1088,28.6262,0.0011024,1.00281838,20.786,186.4035,159.0873
65486,SHIYAN 29,IGO,25354.70680933,1 65486U 25196A   25354.70680933 -.00000262  00000-0  00000-0 0  5613,2 65486  28.6264  20.7835 0011040 186.4101 231.7730  1.00281759  1097,28.6264,0.001104,1.00281759,20.7835,186.4101,231.773
65486,SHIYAN 29,IGO,25355.54747108,1 65486U 25196A   25355.54747108 -.00000261  00000-0  00000-0 0  5624,2 65486  28.6273  20.7728 0011059 186.4169 175.2666  1.00281423  1102,28.6273,0.0011059,1.00281423,20.7728,186.4169,175.2666
65486,SHIYAN 29,IGO,25355.70239652,1 65486U 25196A   25355.70239652 -.00000261  00000-0  00000-0 0  5644,2 65486  28.6274  20.7709 0011075 186.4337 231.1818  1.00281361  1109,28.6274,0.0011075,1.00281361,20.7709,186.4337,231.1818
65486,SHIYAN 29,IGO,25356.92837514,1 65486U 25196A   25356.92837514 -.00000260  00000-0  00000+0 0  3039,2 65486  28.6287  20.7553 0011136 186.5834 313.6395  1.00280843  1112,28.6287,0.0011136,1.00280843,20.7553,186.5834,313.6395
65486,SHIYAN 29,IGO,25358.92837692,1 65486U 25196A   25358.92837692 -.00000261  00000-0  00000+0 0  3073,2 65486  28.6309  20.7299 0011213 187.0424 315.2239  1.00279938  1131,28.6309,0.0011213,1.00279938,20.7299,187.0424,315.2239
65486,SHIYAN 29,IGO,25358.92837693,1 65486U 25196A   25358.92837693 -.00000261  00000-0  00000-0 0  5662,2 65486  28.6309  20.7299 0011213 187.0424 315.2239  1.00279938  1131,28.6309,0.0011213,1.00279938,20.7299,187.0424,315.2239
65486,SHIYAN 29,IGO,25359.84537095,1 65486U 25196A   25359.84537095 -.00000262  00000-0  00000+0 0  3081,2 65486  28.6320  20.7182 0011230 187.3598 285.9587  1.00279502  1146,28.632,0.001123,1.00279502,20.7182,187.3598,285.9587
65486,SHIYAN 29,IGO,25359.93132104,1 65486U 25196A   25359.93132104 -.00000262  00000-0  00000-0 0  5693,2 65486  28.6321  20.7171 0011235 187.4014 316.9465  1.00279463  1140,28.6321,0.0011235,1.00279463,20.7171,187.4014,316.9465
65486,SHIYAN 29,IGO,25359.99434911,1 65486U 25196A   25359.99434911 -.00000262  00000-0  00000-0 0  5702,2 65486  28.6321  20.7163 0011239 187.4187 339.6835  1.00279432  1145,28.6321,0.0011239,1.00279432,20.7163,187.4187,339.6835
65486,SHIYAN 29,IGO,25360.62595535,1 65486U 25196A   25360.62595535 -.00000263  00000-0  00000-0 0  5727,2 65486  28.6329  20.7082 0011260 187.5686 207.5546  1.00279130  1150,28.6329,0.001126,1.0027913,20.7082,187.5686,207.5546
65486,SHIYAN 29,IGO,25360.68539998,1 65486U 25196A   25360.68539998 -.00000263  00000-0  00000+0 0  3114,2 65486  28.6329  20.7075 0011260 187.5988 228.9850  1.00279102  1151,28.6329,0.001126,1.00279102,20.7075,187.5988,228.985
65486,SHIYAN 29,IGO,25360.85574530,1 65486U 25196A   25360.85574530 -.00000263  00000-0  00000+0 0  3125,2 65486  28.6332  20.7053 0011257 187.7141 290.3672  1.00279027  1151,28.6332,0.0011257,1.00279027,20.7053,187.7141,290.3672
65486,SHIYAN 29,IGO,25360.85574531,1 65486U 25196A   25360.85574531 -.00000263  00000-0  00000-0 0  5747,2 65486  28.6332  20.7053 0011257 187.7141 290.3672  1.00279027  1151,28.6332,0.0011257,1.00279027,20.7053,187.7141,290.3672
65486,SHIYAN 29,IGO,25360.97351427,1 65486U 25196A   25360.97351427 -.00000263  00000-0  00000+0 0  3137,2 65486  28.6333  20.7038 0011258 187.7772 332.8206  1.00278972  1159,28.6333,0.0011258,1.00278972,20.7038,187.7772,332.8206
65486,SHIYAN 29,IGO,25360.97351428,1 65486U 25196A   25360.97351428 -.00000263  00000-0  00000-0 0  5759,2 65486  28.6333  20.7038 0011258 187.7772 332.8206  1.00278972  1159,28.6333,0.0011258,1.00278972,20.7038,187.7772,332.8206
65486,SHIYAN 29,IGO,25361.70675958,1 65486U 25196A   25361.70675958 -.00000265  00000-0  00000+0 0  3140,2 65486  28.6342  20.6945 0011257 188.0611 237.2498  1.00278622  1164,28.6342,0.0011257,1.00278622,20.6945,188.0611,237.2498
65486,SHIYAN 29,IGO,25361.91518242,1 65486U 25196A   25361.91518242 -.00000265  00000-0  00000+0 0  3156,2 65486  28.6344  20.6919 0011244 188.2110 312.3437  1.00278532  1167,28.6344,0.0011244,1.00278532,20.6919,188.211,312.3437
65486,SHIYAN 29,IGO,25361.91518243,1 65486U 25196A   25361.91518243 -.00000265  00000-0  00000-0 0  5778,2 65486  28.6344  20.6919 0011244 188.2110 312.3437  1.00278532  1167,28.6344,0.0011244,1.00278532,20.6919,188.211,312.3437
65486,SHIYAN 29,IGO,25361.96726588,1 65486U 25196A   25361.96726588 -.00000266  00000-0  00000+0 0  3167,2 65486  28.6345  20.6912 0011240 188.2450 331.1125  1.00278507  1169,28.6345,0.001124,1.00278507,20.6912,188.245,331.1125
65486,SHIYAN 29,IGO,25361.96726589,1 65486U 25196A   25361.96726589 -.00000266  00000-0  00000-0 0  5789,2 65486  28.6345  20.6912 0011240 188.2450 331.1125  1.00278507  1169,28.6345,0.001124,1.00278507,20.6912,188.245,331.1125
65486,SHIYAN 29,IGO,25362.77921514,1 65486U 25196A   25362.77921514 -.00000268  00000-0  00000+0 0  3176,2 65486  28.6355  20.6809 0011225 188.6231 263.8595  1.00278133  1177,28.6355,0.0011225,1.00278133,20.6809,188.6231,263.8595
65486,SHIYAN 29,IGO,25362.77921515,1 65486U 25196A   25362.77921515 -.00000268  00000-0  00000-0 0  5798,2 65486  28.6355  20.6809 0011225 188.6231 263.8595  1.00278133  1177,28.6355,0.0011225,1.00278133,20.6809,188.6231,263.8595
65486,SHIYAN 29,IGO,25363.83642345,1 65486U 25196A   25363.83642345 -.00000271  00000-0  00000+0 0  3181,2 65486  28.6368  20.6676 0011175 189.1822 284.9659  1.00277682  1183,28.6368,0.0011175,1.00277682,20.6676,189.1822,284.9659
65486,SHIYAN 29,IGO,25363.96477088,1 65486U 25196A   25363.96477088 -.00000271  00000-0  00000-0 0  5852,2 65486  28.6370  20.6660 0011161 189.2554 331.2276  1.00277633  1184,28.637,0.0011161,1.00277633,20.666,189.2554,331.2276
65486,SHIYAN 29,IGO,25364.65678110,1 65486U 25196A   25364.65678110 -.00000273  00000-0  00000+0 0  3217,2 65486  28.6378  20.6572 0011127 189.6109 220.6953  1.00277353  1199,28.6378,0.0011127,1.00277353,20.6572,189.6109,220.6953
65486,SHIYAN 29,IGO,25364.65678111,1 65486U 25196A   25364.65678111 -.00000273  00000-0  00000-0 0  5862,2 65486  28.6378  20.6572 0011127 189.6109 220.6953  1.00277353  1199,28.6378,0.0011127,1.00277353,20.6572,189.6109,220.6953
65486,SHIYAN 29,IGO,25364.98948803,1 65486U 25196A   25364.98948803 -.00000274  00000-0  00000+0 0  3224,2 65486  28.6382  20.6530 0011091 189.7558 340.6614  1.00277236  1194,28.6382,0.0011091,1.00277236,20.653,189.7558,340.6614
65486,SHIYAN 29,IGO,25364.98948804,1 65486U 25196A   25364.98948804 -.00000274  00000-0  00000-0 0  5879,2 65486  28.6382  20.6530 0011091 189.7558 340.6614  1.00277236  1194,28.6382,0.0011091,1.00277236,20.653,189.7558,340.6614
